STARLINK-31796          
1 59646U 24082R   26068.17419417 -.00000721  00000+0 -16676-4 0  9993
2 59646  43.0021 142.6731 0001059 228.3655 131.7106 15.27574893104894
FLOCK 4G-1              
1 62666U 25009BK  26068.75951132  .00013534  00000+0  50654-3 0  9995
2 62666  97.4059 151.3158 0003180 323.1401  36.9619 15.27421081 63725
